{
  "type": "FeatureCollection",
  "features": [
    {
      "type": "Feature",
      "properties": {
        "norad_id": 32376,
        "name": "COSMO-SKYMED 2",
        "group": "resource",
        "lat": 29.152225959497496,
        "lon": -10.578290610288468,
        "alt_km": 620.7054828570981,
        "timestamp": "2025-12-09T14:52:25.822453+00:00",
        "meta_object_name": "COSMO-SKYMED 2",
        "meta_object_id": "2007-059A",
        "meta_epoch": "2025-12-09T07:42:59.241600",
        "meta_mean_motion": 14.82160079,
        "meta_eccentricity": 0.00015316,
        "meta_inclination": 97.8812,
        "meta_ra_of_asc_node": 164.6967,
        "meta_arg_of_pericenter": 85.7615,
        "meta_mean_anomaly": 274.3773,
        "meta_ephemeris_type": 0,
        "meta_classification_type": "U",
        "meta_norad_cat_id": 32376,
        "meta_element_set_no": 999,
        "meta_rev_at_epoch": 97387,
        "meta_bstar": 0.00013915711,
        "meta_mean_motion_dot": 1.056e-05,
        "meta_mean_motion_ddot": 0,
        "tle_line1": "1 32376U 07059A   25343.32151900  .00001056  00000+0  13916-3 0  9994",
        "tle_line2": "2 32376  97.8812 164.6967 0001531  85.7615 274.3773 14.82160079973874"
      },
      "geometry": {
        "type": "Point",
        "coordinates": [
          -10.578290610288468,
          29.152225959497496
        ]
      }
    },
    {
      "type": "Feature",
      "properties": {
        "norad_id": 32382,
        "name": "RADARSAT-2",
        "group": "resource",
        "lat": -35.2046260281892,
        "lon": -5.630708417298899,
        "alt_km": 798.4009336121508,
        "timestamp": "2025-12-09T14:52:25.822464+00:00",
        "meta_object_name": "RADARSAT-2",
        "meta_object_id": "2007-061A",
        "meta_epoch": "2025-12-09T06:38:37.705056",
        "meta_mean_motion": 14.29986642,
        "meta_eccentricity": 0.00010899,
        "meta_inclination": 98.5795,
        "meta_ra_of_asc_node": 347.917,
        "meta_arg_of_pericenter": 86.1777,
        "meta_mean_anomaly": 273.953,
        "meta_ephemeris_type": 0,
        "meta_classification_type": "U",
        "meta_norad_cat_id": 32382,
        "meta_element_set_no": 999,
        "meta_rev_at_epoch": 93881,
        "meta_bstar": 0.00016575886,
        "meta_mean_motion_dot": 3.84e-06,
        "meta_mean_motion_ddot": 0,
        "tle_line1": "1 32382U 07061A   25343.27682529  .00000384  00000+0  16576-3 0  9992",
        "tle_line2": "2 32382  98.5795 347.9170 0001089  86.1777 273.9530 14.29986642938817"
      },
      "geometry": {
        "type": "Point",
        "coordinates": [
          -5.630708417298899,
          -35.2046260281892
        ]
      }
    },
    {
      "type": "Feature",
      "properties": {
        "norad_id": 32783,
        "name": "CARTOSAT-2A",
        "group": "resource",
        "lat": -33.4966223343371,
        "lon": 38.740636697509274,
        "alt_km": 633.1839470282002,
        "timestamp": "2025-12-09T14:52:25.822479+00:00",
        "meta_object_name": "CARTOSAT-2A",
        "meta_object_id": "2008-021A",
        "meta_epoch": "2025-12-09T06:54:26.429760",
        "meta_mean_motion": 14.78925843,
        "meta_eccentricity": 0.00122122,
        "meta_inclination": 97.793,
        "meta_ra_of_asc_node": 33.219,
        "meta_arg_of_pericenter": 15.3963,
        "meta_mean_anomaly": 344.7618,
        "meta_ephemeris_type": 0,
        "meta_classification_type": "U",
        "meta_norad_cat_id": 32783,
        "meta_element_set_no": 999,
        "meta_rev_at_epoch": 95073,
        "meta_bstar": 0.0001394826,
        "meta_mean_motion_dot": 9.79e-06,
        "meta_mean_motion_ddot": 0,
        "tle_line1": "1 32783U 08021A   25343.28780590  .00000979  00000+0  13948-3 0  9992",
        "tle_line2": "2 32783  97.7930  33.2190 0012212  15.3963 344.7618 14.78925843950731"
      },
      "geometry": {
        "type": "Point",
        "coordinates": [
          38.740636697509274,
          -33.4966223343371
        ]
      }
    },
    {
      "type": "Feature",
      "properties": {
        "norad_id": 33320,
        "name": "HUANJING 1A (HJ-1A)",
        "group": "resource",
        "lat": 37.4585009230319,
        "lon": 157.96203764555173,
        "alt_km": 617.9518326730968,
        "timestamp": "2025-12-09T14:52:25.822502+00:00",
        "meta_object_name": "HUANJING 1A (HJ-1A)",
        "meta_object_id": "2008-041A",
        "meta_epoch": "2025-12-09T06:08:33.808704",
        "meta_mean_motion": 14.83377186,
        "meta_eccentricity": 0.00203673,
        "meta_inclination": 97.654,
        "meta_ra_of_asc_node": 331.6995,
        "meta_arg_of_pericenter": 45.2605,
        "meta_mean_anomaly": 315.0263,
        "meta_ephemeris_type": 0,
        "meta_classification_type": "U",
        "meta_norad_cat_id": 33320,
        "meta_element_set_no": 999,
        "meta_rev_at_epoch": 93024,
        "meta_bstar": 0.00033463832,
        "meta_mean_motion_dot": 2.703e-05,
        "meta_mean_motion_ddot": 0,
        "tle_line1": "1 33320U 08041A   25343.25594686  .00002703  00000+0  33464-3 0  9990",
        "tle_line2": "2 33320  97.6540 331.6995 0020367  45.2605 315.0263 14.83377186930246"
      },
      "geometry": {
        "type": "Point",
        "coordinates": [
          157.96203764555173,
          37.4585009230319
        ]
      }
    },
    {
      "type": "Feature",
      "properties": {
        "norad_id": 33321,
        "name": "HUANJING 1B (HJ-1B)",
        "group": "resource",
        "lat": 8.72875197632754,
        "lon": -25.427333038248687,
        "alt_km": 615.9693840157197,
        "timestamp": "2025-12-09T14:52:25.822524+00:00",
        "meta_object_name": "HUANJING 1B (HJ-1B)",
        "meta_object_id": "2008-041B",
        "meta_epoch": "2025-12-09T06:44:11.611680",
        "meta_mean_motion": 14.82808501,
        "meta_eccentricity": 0.00382619,
        "meta_inclination": 97.6397,
        "meta_ra_of_asc_node": 335.4295,
        "meta_arg_of_pericenter": 86.5932,
        "meta_mean_anomaly": 273.9657,
        "meta_ephemeris_type": 0,
        "meta_classification_type": "U",
        "meta_norad_cat_id": 33321,
        "meta_element_set_no": 999,
        "meta_rev_at_epoch": 93026,
        "meta_bstar": 0.00030095756,
        "meta_mean_motion_dot": 2.414e-05,
        "meta_mean_motion_ddot": 0,
        "tle_line1": "1 33321U 08041B   25343.28068995  .00002414  00000+0  30096-3 0  9990",
        "tle_line2": "2 33321  97.6397 335.4295 0038261  86.5932 273.9657 14.82808501930265"
      },
      "geometry": {
        "type": "Point",
        "coordinates": [
          -25.427333038248687,
          8.72875197632754
        ]
      }
    },
    {
      "type": "Feature",
      "properties": {
        "norad_id": 33331,
        "name": "GEOEYE 1",
        "group": "resource",
        "lat": -17.27855729833679,
        "lon": -127.60773796847603,
        "alt_km": 682.7608405512847,
        "timestamp": "2025-12-09T14:52:25.822538+00:00",
        "meta_object_name": "GEOEYE 1",
        "meta_object_id": "2008-042A",
        "meta_epoch": "2025-12-09T07:25:03.878688",
        "meta_mean_motion": 14.64805966,
        "meta_eccentricity": 0.00027783,
        "meta_inclination": 98.1256,
        "meta_ra_of_asc_node": 54.6326,
        "meta_arg_of_pericenter": 291.9409,
        "meta_mean_anomaly": 68.1499,
        "meta_ephemeris_type": 0,
        "meta_classification_type": "U",
        "meta_norad_cat_id": 33331,
        "meta_element_set_no": 999,
        "meta_rev_at_epoch": 92235,
        "meta_bstar": 0.00022502443,
        "meta_mean_motion_dot": 1.153e-05,
        "meta_mean_motion_ddot": 0,
        "tle_line1": "1 33331U 08042A   25343.30907267  .00001153  00000+0  22502-3 0  9991",
        "tle_line2": "2 33331  98.1256  54.6326 0002778 291.9409  68.1499 14.64805966922357"
      },
      "geometry": {
        "type": "Point",
        "coordinates": [
          -127.60773796847603,
          -17.27855729833679
        ]
      }
    },
    {
      "type": "Feature",
      "properties": {
        "norad_id": 33396,
        "name": "THEOS",
        "group": "resource",
        "lat": -15.529453501750034,
        "lon": -140.60511504364592,
        "alt_km": 829.8837801506543,
        "timestamp": "2025-12-09T14:52:25.822550+00:00",
        "meta_object_name": "THEOS",
        "meta_object_id": "2008-049A",
        "meta_epoch": "2025-12-09T07:11:30.623136",
        "meta_mean_motion": 14.20095568,
        "meta_eccentricity": 0.00011177,
        "meta_inclination": 98.5867,
        "meta_ra_of_asc_node": 41.4906,
        "meta_arg_of_pericenter": 95.6368,
        "meta_mean_anomaly": 264.4937,
        "meta_ephemeris_type": 0,
        "meta_classification_type": "U",
        "meta_norad_cat_id": 33396,
        "meta_element_set_no": 999,
        "meta_rev_at_epoch": 89101,
        "meta_bstar": 0.0001446133,
        "meta_mean_motion_dot": 2.65e-06,
        "meta_mean_motion_ddot": 0,
        "tle_line1": "1 33396U 08049A   25343.29965999  .00000265  00000+0  14461-3 0  9991",
        "tle_line2": "2 33396  98.5867  41.4906 0001117  95.6368 264.4937 14.20095568891014"
      },
      "geometry": {
        "type": "Point",
        "coordinates": [
          -140.60511504364592,
          -15.529453501750034
        ]
      }
    }
  ]
}